[{"OBJECT_NAME":"STARLINK-5477","OBJECT_ID":"2023-021AH","EPOCH":"2026-03-09T15:20:47.994432","MEAN_MOTION":14.98322466,"ECCENTRICITY":0.00029945,"INCLINATION":70.0012,"RA_OF_ASC_NODE":164.7194,"ARG_OF_PERICENTER":271.0694,"MEAN_ANOMALY":89.0122,"EPHEMERIS_TYPE":0,"CLASSIFICATION_TYPE":"U","NORAD_CAT_ID":55659,"ELEMENT_SET_NO":999,"REV_AT_EPOCH":16926,"BSTAR":-0.00017888098,"MEAN_MOTION_DOT":-2.226e-5,"MEAN_MOTION_DDOT":0},{"OBJECT_NAME":"COSMOS 2251 DEB","OBJECT_ID":"1993-036AJA","EPOCH":"2026-02-11T08:52:27.880032","MEAN_MOTION":15.05018922,"ECCENTRICITY":0.00700444,"INCLINATION":73.9325,"RA_OF_ASC_NODE":48.614,"ARG_OF_PERICENTER":290.1885,"MEAN_ANOMALY":69.178,"EPHEMERIS_TYPE":0,"CLASSIFICATION_TYPE":"U","NORAD_CAT_ID":35071,"ELEMENT_SET_NO":999,"REV_AT_EPOCH":68448,"BSTAR":0.0010407924,"MEAN_MOTION_DOT":0.00015602,"MEAN_MOTION_DDOT":0}]
